STARLINK-2248           
1 48591U 21041AQ  22317.08112218  .00004351  00000+0  31078-3 0  9997
2 48591  53.0521 175.2412 0001521  78.8158 281.3001 15.06406968 83330
STARLINK-2249           
1 48592U 21041AR  22317.35664244  .00001561  00000+0  12367-3 0  9999
2 48592  53.0539 184.0364 0001453  66.0214 294.0927 15.06405113 82338
STARLINK-2250           
1 48593U 21041AS  22317.36126954  .00000054  00000+0  22528-4 0  9999
2 48593  53.0526 183.9847 0001701  62.9735 297.1427 15.06398036 82332
STARLINK-2251           
1 48594U 21041AT  22316.99175920  .00001427  00000+0  11465-3 0  9997
2 48594  53.0540 155.7233 0001317  76.3800 283.7335 15.06398460 82701
STARLINK-2252           
1 48595U 21041AU  22317.14380335  .00007109  00000+0  49584-3 0  9990
2 48595  53.0553 184.9589 0001541  70.7772 289.3383 15.06384169 83571
STARLINK-2253           
1 48596U 21041AV  22317.03322225  .00006706  00000+0  46833-3 0  9999
2 48596  53.0528 185.4544 0001488  69.7436 290.3713 15.06425140 82748
STARLINK-2255           
1 48597U 21041AW  22317.04061009  .00001572  00000+0  12439-3 0  9992
2 48597  53.0539 185.4092 0001436  70.8045 289.3100 15.06397057 83554
STARLINK-2256           
1 48598U 21041AX  22316.97792742  .00000027  00000+0  20687-4 0  9998
2 48598  53.0544 185.7051 0001377  80.7170 279.3974 15.06402993 82735
STARLINK-2274           
1 48599U 21041AY  22317.00419547  .00001292  00000+0  10563-3 0  9999
2 48599  53.0539 160.5885 0001464  77.8933 282.2220 15.06396503 83903
STARLINK-2275           
1 48600U 21041AZ  22316.97517578 -.00001787  00000+0 -10109-3 0  9997
2 48600  53.0540 175.7122 0001676  93.6745 266.4435 15.06398088 83689
STARLINK-2713           
1 48602U 21041BB  22316.97105035  .00006356  00000+0  44517-3 0  9995
2 48602  53.0528 160.7296 0001697  79.3262 280.7918 15.06401261 83886
STARLINK-2714           
1 48603U 21041BC  22317.41470319  .00004672  00000+0  33225-3 0  9999
2 48603  53.0524 153.7258 0001597  81.3914 278.7255 15.06411755 84037
STARLINK-2757           
1 48604U 21041BD  22317.08482242  .00000250  00000+0  35661-4 0  9996
2 48604  53.0536 185.2223 0001509  63.1045 297.0098 15.06402869 83561
FALCON 9 DEB            
1 48607U 21041BG  22317.42051096  .00001850  00000+0  17357-3 0  9994
2 48607  53.0376 213.1211 0014748 126.0290 234.2065 14.98770847 81901
FALCON 9 DEB            
1 48608U 21041BH  22317.07064060  .00001885  00000+0  18032-3 0  9990
2 48608  53.0339 217.7390 0014197 137.7151 222.4931 14.97879156 81804
FALCON 9 DEB            
1 48609U 21041BJ  22317.43129653  .00002040  00000+0  18887-3 0  9993
2 48609  53.0301 212.0700 0013234 122.7133 237.5130 14.98826923 81917
FALCON 9 DEB            
1 48610U 21041BK  22317.03271712  .00001968  00000+0  18083-3 0  9991
2 48610  53.0290 212.4258 0016178 119.1460 241.1146 14.99279866 81873
STARLINK-2758           
1 48638U 21044A   22316.97009469  .00004755  00000+0  33786-3 0  9998
2 48638  53.0533 160.7403 0001290  88.0247 272.0890 15.06401407 80994
STARLINK-2739           
1 48639U 21044B   22317.35343651  .00000080  00000+0  24298-4 0  9992
2 48639  53.0519 159.0221 0001520  83.9507 276.1655 15.06407985 81056
STARLINK-2736           
1 48640U 21044C   22317.28068250  .00006367  00000+0  44576-3 0  9999
2 48640  53.0534 159.6270 0001588  80.6614 279.4555 15.06417269 81031
STARLINK-2754           
1 48641U 21044D   22317.09404001  .00000615  00000+0  60171-4 0  9997
2 48641  53.0524 165.1746 0001908  60.2545 299.8633 15.06410017 81840
STARLINK-2646           
1 48642U 21044E   22317.30688891  .00000929  00000+0  81236-4 0  9996
2 48642  53.0571 164.2039 0001327  79.8268 280.2870 15.06403530 80973
STARLINK-2704           
1 48643U 21044F   22317.28844749  .00001472  00000+0  11767-3 0  9995
2 48643  53.0514 164.2969 0001583  76.0895 284.0270 15.06406794 80973
STARLINK-2695           
1 48644U 21044G   22317.02031987  .00002118  00000+0  16102-3 0  9996
2 48644  53.0534 165.5123 0001473  77.4030 282.7123 15.06398103 80938
STARLINK-2733           
1 48645U 21044H   22317.01663721  .00002049  00000+0  15638-3 0  9999
2 48645  53.0527 165.5346 0001543  74.4782 285.6377 15.06403742 80936
STARLINK-2732           
1 48646U 21044J   22316.88025281  .00006317  00000+0  44241-3 0  9991
2 48646  53.0542 166.1433 0001616  89.5524 270.5650 15.06415501 80911
STARLINK-2691           
1 48647U 21044K   22317.27464818  .00001860  00000+0  14370-3 0  9997
2 48647  53.0527 164.3706 0001518  99.0104 261.1057 15.06410613 80971
STARLINK-2521           
1 48648U 21044L   22316.95768086 -.00001930  00000+0 -11066-3 0  9995
2 48648  53.0535 165.9571 0001696  81.4433 278.6748 15.06404077 80927
STARLINK-2673           
1 48649U 21044M   22317.00557184  .00002004  00000+0  15335-3 0  9992
2 48649  53.0525 165.5746 0001720  69.3668 290.7506 15.06410885 80921
STARLINK-2672           
1 48650U 21044N   22317.00189214  .00002097  00000+0  15963-3 0  9998
2 48650  53.0514 165.5927 0001618  76.5965 283.5204 15.06408512 80927
STARLINK-2731           
1 48651U 21044P   22316.99819937  .00002720  00000+0  20136-3 0  9999
2 48651  53.0538 165.6066 0001431  75.0023 285.1124 15.06406920 80921
STARLINK-2727           
1 48652U 21044Q   22316.99452988  .00012465  00000+0  85341-3 0  9995
2 48652  53.0512 165.6299 0001571  67.5560 292.5596 15.06435659 80925
STARLINK-2720           
1 48653U 21044R   22316.99083290  .00001194  00000+0  99041-4 0  9992
2 48653  53.0546 165.6457 0001368  73.1422 286.9717 15.06403671 80924
STARLINK-2651           
1 48654U 21044S   22317.31889701  .00003380  00000+0  24570-3 0  9994
2 48654  53.0536 164.1725 0001284  90.9426 269.1710 15.06398342 80973
STARLINK-2657           
1 48655U 21044T   22317.38155722  .00007826  00000+0  54342-3 0  9990
2 48655  53.0522 163.8944 0001845  63.5790 296.5389 15.06419395 80980
STARLINK-2701           
1 48656U 21044U   22316.97977791  .00008718  00000+0  60306-3 0  9991
2 48656  53.0523 165.6982 0001419  58.9551 301.1578 15.06423326 80920
STARLINK-2734           
1 48657U 21044V   22317.30782987  .00002929  00000+0  21538-3 0  9993
2 48657  53.0532 164.2135 0001497  72.2039 287.9113 15.06406948 80974
STARLINK-2647           
1 48658U 21044W   22317.30415389  .00003364  00000+0  24464-3 0  9998
2 48658  53.0527 164.2345 0001650  69.3654 290.7511 15.06402497 80972
STARLINK-2717           
1 48659U 21044X   22317.30046150  .00004573  00000+0  32549-3 0  9991
2 48659  53.0528 164.2542 0001533  62.8199 297.2946 15.06424977 80976
STARLINK-2688           
1 48660U 21044Y   22317.03138366  .00000576  00000+0  57530-4 0  9991
2 48660  53.0530 165.4609 0001481 105.4317 254.6836 15.06404541 80932
STARLINK-2708           
1 48661U 21044Z   22316.96595925  .00002722  00000+0  20155-3 0  9998
2 48661  53.0535 155.7350 0001604  62.5727 297.5425 15.06407191 81067
STARLINK-2726           
1 48662U 21044AA  22317.29401635  .00007268  00000+0  50601-3 0  9999
2 48662  53.0521 154.2859 0001501  79.3825 280.7333 15.06420289 81113
STARLINK-2667           
1 48663U 21044AB  22316.82588134  .00003277  00000+0  23880-3 0  9993
2 48663  53.0542 156.3835 0001300  83.8210 276.2927 15.06400692 81046
STARLINK-2709           
1 48664U 21044AC  22316.95491306  .00005991  00000+0  42067-3 0  9995
2 48664  53.0528 155.8055 0001802  68.5551 291.5630 15.06405385 81061
STARLINK-2653           
1 48665U 21044AD  22317.36677670  .00002018  00000+0  15429-3 0  9991
2 48665  53.0529 153.9424 0001535  66.7595 293.3556 15.06408348 81129
STARLINK-2666           
1 48666U 21044AE  22316.98077006  .00003000  00000+0  22021-3 0  9994
2 48666  53.0541 156.1664 0001349  69.9687 290.1447 15.06394457 81056
STARLINK-2735           
1 48667U 21044AF  22317.28295065  .00007340  00000+0  51093-3 0  9998
2 48667  53.0529 154.3358 0001427  95.7251 264.3901 15.06417458 81116
STARLINK-2738           
1 48668U 21044AG  22317.27925934  .00005430  00000+0  38306-3 0  9993
2 48668  53.0530 154.3412 0001588  71.9724 288.1438 15.06406712 81119
STARLINK-2707           
1 48669U 21044AH  22317.34192654  .00002836  00000+0  20913-3 0  9999
2 48669  53.0518 154.0494 0001412 104.3160 255.7985 15.06420005 81112
STARLINK-2763           
1 48670U 21044AJ  22317.27188587  .00001723  00000+0  13454-3 0  9999
2 48670  53.0534 154.3653 0001380  85.8179 274.2968 15.06407876 81106
STARLINK-2745           
1 48671U 21044AK  22317.26820709  .00000788  00000+0  71757-4 0  9999
2 48671  53.0544 154.3955 0001375  77.5978 282.5165 15.06399459 81100
STARLINK-2705           
1 48672U 21044AL  22316.99914068  .00005589  00000+0  39373-3 0  9992
2 48672  53.0513 155.6064 0001403  77.1345 282.9801 15.06408301 81061
STARLINK-2711           
1 48673U 21044AM  22316.92911314  .00003128  00000+0  22884-3 0  9993
2 48673  53.0523 155.9192 0001526  92.8790 267.2373 15.06395271 81052
STARLINK-2712           
1 48674U 21044AN  22317.25620888  .00005918  00000+0  41557-3 0  9991
2 48674  53.0529 154.4427 0001479  68.8863 291.2284 15.06426060 81100
STARLINK-2737           
1 48675U 21044AP  22316.85538174  .00000826  00000+0  74371-4 0  9997
2 48675  53.0535 156.2549 0001473  66.2551 293.8593 15.06389992 81881
STARLINK-2746           
1 48676U 21044AQ  22317.51516928  .00001415  00000+0  11382-3 0  9992
2 48676  53.0533 153.2850 0001679  82.3142 277.8038 15.06410566 81142
STARLINK-2719           
1 48677U 21044AR  22317.24516089  .00002860  00000+0  21083-3 0  9995
2 48677  53.0535 154.4937 0001614  78.9570 281.1601 15.06396512 81103
STARLINK-2615           
1 48678U 21044AS  22317.24239900  .00001716  00000+0  13403-3 0  9996
2 48678  53.0541 154.5199 0001483  73.7761 286.3391 15.06407321 81105
STARLINK-2648           
1 48679U 21044AT  22316.97336344  .00000933  00000+0  81586-4 0  9994
2 48679  53.0533 155.7258 0001291  88.6463 271.4674 15.06383120 81061
STARLINK-2649           
1 48680U 21044AU  22317.03600969  .00007569  00000+0  52633-3 0  9993
2 48680  53.0516 155.4414 0001670  77.9861 282.1315 15.06410074 81070
